STARLINK-36545          
1 67505U 26012N   26041.16668981 -.01869063  00000+0 -28145-1 0  9997
2 67505  42.9995 110.7366 0001125 263.7240  42.1885 15.57320960  4640
STARLINK-36553          
1 67506U 26012P   26041.16668981 -.01871513  00000+0 -26771-1 0  9994
2 67506  42.9996 110.6565 0001358 264.5236  73.6154 15.58671789  4641
STARLINK-36521          
1 67507U 26012Q   26041.16668981 -.01873565  00000+0 -26851-1 0  9993
2 67507  42.9995 110.6452 0001416 269.3552  73.2845 15.58625570  4645
STARLINK-36526          
1 67508U 26012R   26041.16668981 -.01865623  00000+0 -26744-1 0  9991
2 67508  43.0003 110.6312 0001339 264.1295  83.8375 15.58604943  4640
STARLINK-36541          
1 67509U 26012S   26041.16668981 -.00019427  00000+0 -32619-3 0  9994
2 67509  43.0007 111.6402 0000395 236.2997  63.3617 15.50576182  4586
STARLINK-36549          
1 67510U 26012T   26041.16668981 -.01867750  00000+0 -28381-1 0  9996
2 67510  42.9995 110.4820 0001608 274.8298 130.5480 15.57073878  4590
STARLINK-36540          
1 67511U 26012U   26041.16668981  .00096189  00000+0  16295-2 0  9996
2 67511  43.0005 111.6172 0001454 266.1268  42.8279 15.50506947  4646
STARLINK-36538          
1 67512U 26012V   26041.16668981 -.01861400  00000+0 -31340-1 0  9993
2 67512  42.9995 110.8314 0001105 266.7200   0.2208 15.54324977  4642
STARLINK-36531          
1 67513U 26012W   26041.16668981 -.01864192  00000+0 -30379-1 0  9996
2 67513  42.9998 110.7692 0001403 267.3297  24.6704 15.55205763  4584
STARLINK-36530          
1 67514U 26012X   26041.16668981 -.01856776  00000+0 -31338-1 0  9992
2 67514  42.9994 110.8094 0001140 265.7897   9.7124 15.54249897  4589
STARLINK-36543          
1 67515U 26012Y   26041.16668981 -.01537857  00000+0 -26444-1 0  9991
2 67515  43.0004 110.8570 0001179 272.3057 344.2307 15.53142429  4589
STARLINK-36537          
1 67516U 26012Z   26041.16668981 -.01868511  00000+0 -30360-1 0  9998
2 67516  42.9998 110.7028 0001149 267.7594  50.2781 15.55295698  4587
